{
    "links": {
        "self": "http://www.neowsapp.com/rest/v1/neo/3693607?api_key=iIulBulltgU6a56xZRHN4H3l9WmuAYTsLGpBGhQ2"
    },
    "id": "3693607",
    "neo_reference_id": "3693607",
    "name": "(2014 UG5)",
    "designation": "2014 UG5",
    "nasa_jpl_url": "http://ssd.jpl.nasa.gov/sbdb.cgi?sstr=3693607",
    "absolute_magnitude_h": 23.9,
    "estimated_diameter": {
        "kilometers": {
            "estimated_diameter_min": 0.04411182,
            "estimated_diameter_max": 0.0986370281
        },
        "meters": {
            "estimated_diameter_min": 44.1118199997,
            "estimated_diameter_max": 98.6370281305
        },
        "miles": {
            "estimated_diameter_min": 0.0274098057,
            "estimated_diameter_max": 0.0612901888
        },
        "feet": {
            "estimated_diameter_min": 144.7238235278,
            "estimated_diameter_max": 323.6123073718
        }
    },
    "is_potentially_hazardous_asteroid": false,
    "close_approach_data": [
        {
            "close_approach_date": "2014-10-28",
            "close_approach_date_full": "2014-Oct-28 13:25",
            "epoch_date_close_approach": 1414502700000,
            "relative_velocity": {
                "kilometers_per_second": "9.5584639195",
                "kilometers_per_hour": "34410.4701101549",
                "miles_per_hour": "21381.3279415015"
            },
            "miss_distance": {
                "astronomical": "0.0735831717",
                "lunar": "28.6238537913",
                "kilometers": "11007885.754164279",
                "miles": "6839983.0334098902"
            },
            "orbiting_body": "Earth"
        },
        {
            "close_approach_date": "2015-03-01",
            "close_approach_date_full": "2015-Mar-01 17:24",
            "epoch_date_close_approach": 1425230640000,
            "relative_velocity": {
                "kilometers_per_second": "4.0336174326",
                "kilometers_per_hour": "14521.0227574917",
                "miles_per_hour": "9022.7988350648"
            },
            "miss_distance": {
                "astronomical": "0.3557360527",
                "lunar": "138.3813245003",
                "kilometers": "53217355.766127749",
                "miles": "33067731.5019869762"
            },
            "orbiting_body": "Earth"
        },
        {
            "close_approach_date": "2080-10-07",
            "close_approach_date_full": "2080-Oct-07 01:14",
            "epoch_date_close_approach": 3495489240000,
            "relative_velocity": {
                "kilometers_per_second": "4.084559022",
                "kilometers_per_hour": "14704.4124790317",
                "miles_per_hour": "9136.7500762072"
            },
            "miss_distance": {
                "astronomical": "0.3886271022",
                "lunar": "151.1759427558",
                "kilometers": "58137786.713392314",
                "miles": "36125145.5184453732"
            },
            "orbiting_body": "Earth"
        },
        {
            "close_approach_date": "2081-02-10",
            "close_approach_date_full": "2081-Feb-10 10:31",
            "epoch_date_close_approach": 3506409060000,
            "relative_velocity": {
                "kilometers_per_second": "10.5101593728",
                "kilometers_per_hour": "37836.5737421106",
                "miles_per_hour": "23510.1755010353"
            },
            "miss_distance": {
                "astronomical": "0.163633711",
                "lunar": "63.653513579",
                "kilometers": "24479254.62579557",
                "miles": "15210703.494776066"
            },
            "orbiting_body": "Earth"
        }
    ],
    "orbital_data": {
        "orbit_id": "8",
        "orbit_determination_date": "2017-04-06 08:38:05",
        "first_observation_date": "2014-10-18",
        "last_observation_date": "2014-10-27",
        "data_arc_in_days": 9,
        "observations_used": 43,
        "orbit_uncertainty": "8",
        "minimum_orbit_intersection": ".0382758",
        "jupiter_tisserand_invariant": "4.575",
        "epoch_osculation": "2456950.5",
        "eccentricity": ".3543985781739111",
        "semi_major_axis": "1.446907388752544",
        "inclination": "6.905197286138991",
        "ascending_node_longitude": "205.605276371883",
        "orbital_period": "635.7107104487135",
        "perihelion_distance": ".9341254674293156",
        "perihelion_argument": "240.8333230247688",
        "aphelion_distance": "1.959689310075772",
        "perihelion_time": "2456999.242836978083",
        "mean_anomaly": "332.3971595511988",
        "mean_motion": ".5662953196838475",
        "equinox": "J2000",
        "orbit_class": {
            "orbit_class_type": "APO",
            "orbit_class_description": "Near-Earth asteroid orbits which cross the Earth’s orbit similar to that of 1862 Apollo",
            "orbit_class_range": "a (semi-major axis) > 1.0 AU; q (perihelion) < 1.017 AU"
        }
    },
    "is_sentry_object": false
}